{
  "type": "FeatureCollection",
  "features": [
    {
      "type": "Feature",
      "properties": {
        "norad_id": 24946,
        "name": "IRIDIUM 33",
        "group": "iridium-33-debris",
        "lat": 68.22080666975863,
        "lon": -121.6623274706336,
        "alt_km": 767.7102351570229,
        "timestamp": "2025-12-14T14:39:29.753865+00:00",
        "meta_object_name": "IRIDIUM 33",
        "meta_object_id": "1997-051C",
        "meta_epoch": "2025-12-13T23:04:43.905792",
        "meta_mean_motion": 14.3503853,
        "meta_eccentricity": 0.00071725,
        "meta_inclination": 86.387,
        "meta_ra_of_asc_node": 67.7088,
        "meta_arg_of_pericenter": 195.9942,
        "meta_mean_anomaly": 164.1029,
        "meta_ephemeris_type": 0,
        "meta_classification_type": "U",
        "meta_norad_cat_id": 24946,
        "meta_element_set_no": 999,
        "meta_rev_at_epoch": 47852,
        "meta_bstar": 0.0001579136,
        "meta_mean_motion_dot": 4.69e-06,
        "meta_mean_motion_ddot": 0,
        "tle_line1": "1 24946U 97051C   25347.96161928  .00000469  00000+0  15791-3 0  9994",
        "tle_line2": "2 24946  86.3870  67.7088 0007172 195.9942 164.1029 14.35038530478522"
      },
      "geometry": {
        "type": "Point",
        "coordinates": [
          -121.6623274706336,
          68.22080666975863
        ]
      }
    },
    {
      "type": "Feature",
      "properties": {
        "norad_id": 33773,
        "name": "IRIDIUM 33 DEB",
        "group": "iridium-33-debris",
        "lat": 55.986759242216486,
        "lon": -125.55473885718183,
        "alt_km": 733.9116979138889,
        "timestamp": "2025-12-14T14:39:29.753893+00:00",
        "meta_object_name": "IRIDIUM 33 DEB",
        "meta_object_id": "1997-051L",
        "meta_epoch": "2025-12-13T23:06:40.461120",
        "meta_mean_motion": 14.43260544,
        "meta_eccentricity": 0.00125684,
        "meta_inclination": 86.4009,
        "meta_ra_of_asc_node": 60.0712,
        "meta_arg_of_pericenter": 142.849,
        "meta_mean_anomaly": 217.3583,
        "meta_ephemeris_type": 0,
        "meta_classification_type": "U",
        "meta_norad_cat_id": 33773,
        "meta_element_set_no": 999,
        "meta_rev_at_epoch": 88365,
        "meta_bstar": 0.00042689308,
        "meta_mean_motion_dot": 1.457e-05,
        "meta_mean_motion_ddot": 0,
        "tle_line1": "1 33773U 97051L   25347.96296830  .00001457  00000+0  42689-3 0  9997",
        "tle_line2": "2 33773  86.4009  60.0712 0012568 142.8490 217.3583 14.43260544883650"
      },
      "geometry": {
        "type": "Point",
        "coordinates": [
          -125.55473885718183,
          55.986759242216486
        ]
      }
    },
    {
      "type": "Feature",
      "properties": {
        "norad_id": 33775,
        "name": "IRIDIUM 33 DEB",
        "group": "iridium-33-debris",
        "lat": -15.50901573182953,
        "lon": -130.2338643609353,
        "alt_km": 751.4172351211218,
        "timestamp": "2025-12-14T14:39:29.753908+00:00",
        "meta_object_name": "IRIDIUM 33 DEB",
        "meta_object_id": "1997-051N",
        "meta_epoch": "2025-12-13T21:54:04.593888",
        "meta_mean_motion": 14.41471606,
        "meta_eccentricity": 0.00144095,
        "meta_inclination": 86.3637,
        "meta_ra_of_asc_node": 49.053,
        "meta_arg_of_pericenter": 151.0323,
        "meta_mean_anomaly": 23.3634,
        "meta_ephemeris_type": 0,
        "meta_classification_type": "U",
        "meta_norad_cat_id": 33775,
        "meta_element_set_no": 999,
        "meta_rev_at_epoch": 88157,
        "meta_bstar": 0.00043370685,
        "meta_mean_motion_dot": 1.428e-05,
        "meta_mean_motion_ddot": 0,
        "tle_line1": "1 33775U 97051N   25347.91255317  .00001428  00000+0  43371-3 0  9996",
        "tle_line2": "2 33775  86.3637  49.0530 0014409 151.0323  23.3634 14.41471606881578"
      },
      "geometry": {
        "type": "Point",
        "coordinates": [
          -130.2338643609353,
          -15.50901573182953
        ]
      }
    },
    {
      "type": "Feature",
      "properties": {
        "norad_id": 33776,
        "name": "IRIDIUM 33 DEB",
        "group": "iridium-33-debris",
        "lat": 42.94736195250336,
        "lon": 83.34616894687936,
        "alt_km": 768.9008270849154,
        "timestamp": "2025-12-14T14:39:29.753921+00:00",
        "meta_object_name": "IRIDIUM 33 DEB",
        "meta_object_id": "1997-051P",
        "meta_epoch": "2025-12-14T00:14:02.577984",
        "meta_mean_motion": 14.38237824,
        "meta_eccentricity": 0.00144871,
        "meta_inclination": 86.4037,
        "meta_ra_of_asc_node": 80.2426,
        "meta_arg_of_pericenter": 186.2029,
        "meta_mean_anomaly": 347.1904,
        "meta_ephemeris_type": 0,
        "meta_classification_type": "U",
        "meta_norad_cat_id": 33776,
        "meta_element_set_no": 999,
        "meta_rev_at_epoch": 88100,
        "meta_bstar": 0.00038624608,
        "meta_mean_motion_dot": 1.194e-05,
        "meta_mean_motion_ddot": 0,
        "tle_line1": "1 33776U 97051P   25348.00975206  .00001194  00000+0  38625-3 0  9990",
        "tle_line2": "2 33776  86.4037  80.2426 0014487 186.2029 347.1904 14.38237824881007"
      },
      "geometry": {
        "type": "Point",
        "coordinates": [
          83.34616894687936,
          42.94736195250336
        ]
      }
    },
    {
      "type": "Feature",
      "properties": {
        "norad_id": 33777,
        "name": "IRIDIUM 33 DEB",
        "group": "iridium-33-debris",
        "lat": -52.000116991472375,
        "lon": 29.74039500874956,
        "alt_km": 712.884369945361,
        "timestamp": "2025-12-14T14:39:29.753932+00:00",
        "meta_object_name": "IRIDIUM 33 DEB",
        "meta_object_id": "1997-051Q",
        "meta_epoch": "2025-12-13T15:47:59.127936",
        "meta_mean_motion": 14.55625093,
        "meta_eccentricity": 0.00052146,
        "meta_inclination": 86.3788,
        "meta_ra_of_asc_node": 34.8038,
        "meta_arg_of_pericenter": 244.6172,
        "meta_mean_anomaly": 115.4496,
        "meta_ephemeris_type": 0,
        "meta_classification_type": "U",
        "meta_norad_cat_id": 33777,
        "meta_element_set_no": 999,
        "meta_rev_at_epoch": 88547,
        "meta_bstar": 0.0010882245,
        "meta_mean_motion_dot": 4.769e-05,
        "meta_mean_motion_ddot": 0,
        "tle_line1": "1 33777U 97051Q   25347.65832324  .00004769  00000+0  10882-2 0  9999",
        "tle_line2": "2 33777  86.3788  34.8038 0005214 244.6172 115.4496 14.55625093885475"
      },
      "geometry": {
        "type": "Point",
        "coordinates": [
          29.74039500874956,
          -52.000116991472375
        ]
      }
    },
    {
      "type": "Feature",
      "properties": {
        "norad_id": 33850,
        "name": "IRIDIUM 33 DEB",
        "group": "iridium-33-debris",
        "lat": -0.9412342788205742,
        "lon": -150.56441219912395,
        "alt_km": 746.6382654731515,
        "timestamp": "2025-12-14T14:39:29.753945+00:00",
        "meta_object_name": "IRIDIUM 33 DEB",
        "meta_object_id": "1997-051T",
        "meta_epoch": "2025-12-13T23:25:47.161056",
        "meta_mean_motion": 14.42149159,
        "meta_eccentricity": 0.00123622,
        "meta_inclination": 86.3417,
        "meta_ra_of_asc_node": 29.6481,
        "meta_arg_of_pericenter": 157.2308,
        "meta_mean_anomaly": 331.3601,
        "meta_ephemeris_type": 0,
        "meta_classification_type": "U",
        "meta_norad_cat_id": 33850,
        "meta_element_set_no": 999,
        "meta_rev_at_epoch": 88170,
        "meta_bstar": 0.0003954182,
        "meta_mean_motion_dot": 1.321e-05,
        "meta_mean_motion_ddot": 0,
        "tle_line1": "1 33850U 97051T   25347.97624029  .00001321  00000+0  39542-3 0  9993",
        "tle_line2": "2 33850  86.3417  29.6481 0012362 157.2308 331.3601 14.42149159881701"
      },
      "geometry": {
        "type": "Point",
        "coordinates": [
          -150.56441219912395,
          -0.9412342788205742
        ]
      }
    },
    {
      "type": "Feature",
      "properties": {
        "norad_id": 33853,
        "name": "IRIDIUM 33 DEB",
        "group": "iridium-33-debris",
        "lat": -82.99700775953475,
        "lon": -45.734277967718555,
        "alt_km": 797.7361184180054,
        "timestamp": "2025-12-14T14:39:29.753957+00:00",
        "meta_object_name": "IRIDIUM 33 DEB",
        "meta_object_id": "1997-051W",
        "meta_epoch": "2025-12-13T23:45:09.424224",
        "meta_mean_motion": 13.99072325,
        "meta_eccentricity": 0.02069852,
        "meta_inclination": 85.9998,
        "meta_ra_of_asc_node": 349.2635,
        "meta_arg_of_pericenter": 231.9376,
        "meta_mean_anomaly": 155.9349,
        "meta_ephemeris_type": 0,
        "meta_classification_type": "U",
        "meta_norad_cat_id": 33853,
        "meta_element_set_no": 999,
        "meta_rev_at_epoch": 85363,
        "meta_bstar": 0.0021762861,
        "meta_mean_motion_dot": 3.799e-05,
        "meta_mean_motion_ddot": 0,
        "tle_line1": "1 33853U 97051W   25347.98969241  .00003799  00000+0  21763-2 0  9991",
        "tle_line2": "2 33853  85.9998 349.2635 0206985 231.9376 155.9349 13.99072325853637"
      },
      "geometry": {
        "type": "Point",
        "coordinates": [
          -45.734277967718555,
          -82.99700775953475
        ]
      }
    }
  ]
}